{
    "NOAA 15": {
        "line1": "1 25338U 98030A   22099.59292804  .00000140  00000+0  76876-4 0  9994",
        "line2": "2 25338  98.6521 130.0047 0011296 134.6133 225.5971 14.26106341243456",
        "freq": 137.62,
        "type": "APT",
        "catalog_number": "25338"
    },
    "NOAA 18": {
        "line1": "1 28654U 05018A   22099.64817459  .00000156  00000+0  10839-3 0  9990",
        "line2": "2 28654  98.9538 170.1266 0014780 162.4190 197.7496 14.12710327870359",
        "freq": 137.9125,
        "type": "APT",
        "catalog_number": "28654"
    },
    "NOAA 19": {
        "line1": "1 33591U 09005A   22099.64165451  .00000153  00000+0  10758-3 0  9991",
        "line2": "2 33591  99.1563 132.3071 0014199  25.4085 334.7781 14.12546599678731",
        "freq": 137.1,
        "type": "APT",
        "catalog_number": "33591"
    },
    "METEOR M2": {
        "line1": "1 40069U 14037A   22099.37472651  .00000029  00000+0  32824-4 0  9994",
        "line2": "2 40069  98.4377 120.3125 0006235 151.3496 208.8028 14.20702335402054",
        "freq": 137.1,
        "type": "LRPT",
        "catalog_number": "40069"
    }
}